[{"OBJECT_NAME":"ION SCV-004","OBJECT_ID":"2022-002K","EPOCH":"2026-03-09T16:32:03.244416","MEAN_MOTION":15.29369331,"ECCENTRICITY":0.00072157,"INCLINATION":97.2961,"RA_OF_ASC_NODE":128.2294,"ARG_OF_PERICENTER":1.6783,"MEAN_ANOMALY":358.448,"EPHEMERIS_TYPE":0,"CLASSIFICATION_TYPE":"U","NORAD_CAT_ID":50993,"ELEMENT_SET_NO":999,"REV_AT_EPOCH":23008,"BSTAR":0.00023198467,"MEAN_MOTION_DOT":6.538e-5,"MEAN_MOTION_DDOT":0},{"OBJECT_NAME":"STARLINK-32099","OBJECT_ID":"2024-086R","EPOCH":"2026-03-09T08:32:34.498176","MEAN_MOTION":15.27581203,"ECCENTRICITY":4.112e-5,"INCLINATION":43.0018,"RA_OF_ASC_NODE":61.5632,"ARG_OF_PERICENTER":256.7357,"MEAN_ANOMALY":103.3449,"EPHEMERIS_TYPE":0,"CLASSIFICATION_TYPE":"U","NORAD_CAT_ID":59697,"ELEMENT_SET_NO":999,"REV_AT_EPOCH":10406,"BSTAR":8.583068e-6,"MEAN_MOTION_DOT":-2.6e-7,"MEAN_MOTION_DDOT":0}]
