ION SCV-004             
1 50993U 22002K   26068.68892644  .00006538  00000+0  23198-3 0  9998
2 50993  97.2961 128.2294 0007216   1.6783 358.4480 15.29369331230088
STARLINK-32099          
1 59697U 24086R   26068.35595484 -.00000026  00000+0  85831-5 0  9999
2 59697  43.0018  61.5632 0000411 256.7357 103.3449 15.27581203104067
